STARLINK-32776          
1 63032U 25034D   25317.04811604  .00056717  00000+0  19122-2 0  9992
2 63032  53.1589  80.2587 0001623  94.8341 265.2846 15.30204511 41222
STARLINK-32772          
1 63033U 25034E   25317.07966921  .00070085  00000+0  23565-2 0  9999
2 63033  53.1566  79.7479 0004739  88.0549 272.0994 15.30187720 41230
STARLINK-32830          
1 63034U 25034F   25317.08387939  .00082650  00000+0  27668-2 0  9996
2 63034  53.1609  79.7731 0001609  60.1597 299.9564 15.30258354 41230
STARLINK-32801          
1 63035U 25034G   25316.77312760  .00052296  00000+0  17624-2 0  9996
2 63035  53.1580  81.3884 0000996  82.0675 278.0438 15.30255249 41176
STARLINK-32818          
1 63036U 25034H   25316.63089517  .00051598  00000+0  17399-2 0  9996
2 63036  53.1596  81.9260 0001195  84.3884 275.7253 15.30242913 41169
STARLINK-32810          
1 63037U 25034J   25316.76996308  .00053838  00000+0  18140-2 0  9990
2 63037  53.1593  81.3700 0000713  45.2722 314.8337 15.30249336 41188
STARLINK-32812          
1 63038U 25034K   25316.50449118  .00122073  00000+0  40640-2 0  9993
2 63038  53.1579  82.5503 0001194  81.2123 278.9013 15.30220085 41143
STARLINK-32811          
1 63039U 25034L   25316.63722813  .00051452  00000+0  17360-2 0  9999
2 63039  53.1577  81.9605 0001006  72.7879 287.3231 15.30224318 41164
STARLINK-32832          
1 63040U 25034M   25317.08072525  .00069199  00000+0  23277-2 0  9990
2 63040  53.1546  79.7492 0004132  87.6404 272.5070 15.30183162 41239
STARLINK-32820          
1 63041U 25034N   25316.62984053  .00045175  00000+0  15264-2 0  9993
2 63041  53.1591  81.9114 0001239  86.1923 273.9219 15.30237737 41161
STARLINK-32795          
1 63042U 25034P   25317.06277522  .00058160  00000+0  19603-2 0  9998
2 63042  53.1565  79.6389 0002525  84.3489 275.7799 15.30200824 41235
STARLINK-32827          
1 63043U 25034Q   25316.79584493  .00048717  00000+0  16436-2 0  9994
2 63043  53.1590  94.3084 0001139  76.1361 283.9766 15.30252349 41007
STARLINK-32735          
1 63044U 25034R   25316.79996787  .00057314  00000+0  19279-2 0  9999
2 63044  53.1592  93.6268 0000909 348.6846  11.4134 15.30273910 41016
STARLINK-32828          
1 63045U 25034S   25316.43340017  .00090886  00000+0  30404-2 0  9994
2 63045  53.1580  95.5979 0001063  72.2260 287.8856 15.30231984 40953
STARLINK-32738          
1 63046U 25034T   25317.05750024  .00010014  00000+0  34966-3 0  9990
2 63046  53.1557  79.6075 0003582  77.5738 282.5663 15.30211134 41239
STARLINK-32590          
1 63047U 25034U   25316.63195100  .00050652  00000+0  17085-2 0  9996
2 63047  53.1592  81.9292 0001278  88.1148 271.9999 15.30241485 41156
