[{"OBJECT_NAME":"STARLINK-32776","OBJECT_ID":"2025-034D","EPOCH":"2025-11-13T01:09:17.225856","MEAN_MOTION":15.30204511,"ECCENTRICITY":0.00016231,"INCLINATION":53.1589,"RA_OF_ASC_NODE":80.2587,"ARG_OF_PERICENTER":94.8341,"MEAN_ANOMALY":265.2846,"EPHEMERIS_TYPE":0,"CLASSIFICATION_TYPE":"U","NORAD_CAT_ID":63032,"ELEMENT_SET_NO":999,"REV_AT_EPOCH":4122,"BSTAR":0.0019122365,"MEAN_MOTION_DOT":0.00056717,"MEAN_MOTION_DDOT":0},{"OBJECT_NAME":"STARLINK-32772","OBJECT_ID":"2025-034E","EPOCH":"2025-11-13T01:54:43.419744","MEAN_MOTION":15.3018772,"ECCENTRICITY":0.00047396,"INCLINATION":53.1566,"RA_OF_ASC_NODE":79.7479,"ARG_OF_PERICENTER":88.0549,"MEAN_ANOMALY":272.0994,"EPHEMERIS_TYPE":0,"CLASSIFICATION_TYPE":"U","NORAD_CAT_ID":63033,"ELEMENT_SET_NO":999,"REV_AT_EPOCH":4123,"BSTAR":0.0023565424,"MEAN_MOTION_DOT":0.00070085,"MEAN_MOTION_DDOT":0},{"OBJECT_NAME":"STARLINK-32830","OBJECT_ID":"2025-034F","EPOCH":"2025-11-13T02:00:47.179296","MEAN_MOTION":15.30258354,"ECCENTRICITY":0.00016095,"INCLINATION":53.1609,"RA_OF_ASC_NODE":79.7731,"ARG_OF_PERICENTER":60.1597,"MEAN_ANOMALY":299.9564,"EPHEMERIS_TYPE":0,"CLASSIFICATION_TYPE":"U","NORAD_CAT_ID":63034,"ELEMENT_SET_NO":999,"REV_AT_EPOCH":4123,"BSTAR":0.0027667717,"MEAN_MOTION_DOT":0.0008265,"MEAN_MOTION_DDOT":0},{"OBJECT_NAME":"STARLINK-32801","OBJECT_ID":"2025-034G","EPOCH":"2025-11-12T18:33:18.224640","MEAN_MOTION":15.30255249,"ECCENTRICITY":9.964e-5,"INCLINATION":53.158,"RA_OF_ASC_NODE":81.3884,"ARG_OF_PERICENTER":82.0675,"MEAN_ANOMALY":278.0438,"EPHEMERIS_TYPE":0,"CLASSIFICATION_TYPE":"U","NORAD_CAT_ID":63035,"ELEMENT_SET_NO":999,"REV_AT_EPOCH":4117,"BSTAR":0.0017624038,"MEAN_MOTION_DOT":0.00052296,"MEAN_MOTION_DDOT":0},{"OBJECT_NAME":"STARLINK-32818","OBJECT_ID":"2025-034H","EPOCH":"2025-11-12T15:08:29.342688","MEAN_MOTION":15.30242913,"ECCENTRICITY":0.00011952,"INCLINATION":53.1596,"RA_OF_ASC_NODE":81.926,"ARG_OF_PERICENTER":84.3884,"MEAN_ANOMALY":275.7253,"EPHEMERIS_TYPE":0,"CLASSIFICATION_TYPE":"U","NORAD_CAT_ID":63036,"ELEMENT_SET_NO":999,"REV_AT_EPOCH":4116,"BSTAR":0.0017398629,"MEAN_MOTION_DOT":0.00051598,"MEAN_MOTION_DDOT":0},{"OBJECT_NAME":"STARLINK-32810","OBJECT_ID":"2025-034J","EPOCH":"2025-11-12T18:28:44.810112","MEAN_MOTION":15.30249336,"ECCENTRICITY":7.135e-5,"INCLINATION":53.1593,"RA_OF_ASC_NODE":81.37,"ARG_OF_PERICENTER":45.2722,"MEAN_ANOMALY":314.8337,"EPHEMERIS_TYPE":0,"CLASSIFICATION_TYPE":"U","NORAD_CAT_ID":63037,"ELEMENT_SET_NO":999,"REV_AT_EPOCH":4118,"BSTAR":0.0018139747,"MEAN_MOTION_DOT":0.00053838,"MEAN_MOTION_DDOT":0},{"OBJECT_NAME":"STARLINK-32812","OBJECT_ID":"2025-034K","EPOCH":"2025-11-12T12:06:28.037952","MEAN_MOTION":15.30220085,"ECCENTRICITY":0.00011945,"INCLINATION":53.1579,"RA_OF_ASC_NODE":82.5503,"ARG_OF_PERICENTER":81.2123,"MEAN_ANOMALY":278.9013,"EPHEMERIS_TYPE":0,"CLASSIFICATION_TYPE":"U","NORAD_CAT_ID":63038,"ELEMENT_SET_NO":999,"REV_AT_EPOCH":4114,"BSTAR":0.0040639821,"MEAN_MOTION_DOT":0.00122073,"MEAN_MOTION_DDOT":0},{"OBJECT_NAME":"STARLINK-32811","OBJECT_ID":"2025-034L","EPOCH":"2025-11-12T15:17:36.510432","MEAN_MOTION":15.30224318,"ECCENTRICITY":0.0001006,"INCLINATION":53.1577,"RA_OF_ASC_NODE":81.9605,"ARG_OF_PERICENTER":72.7879,"MEAN_ANOMALY":287.3231,"EPHEMERIS_TYPE":0,"CLASSIFICATION_TYPE":"U","NORAD_CAT_ID":63039,"ELEMENT_SET_NO":999,"REV_AT_EPOCH":4116,"BSTAR":0.0017360166,"MEAN_MOTION_DOT":0.00051452,"MEAN_MOTION_DDOT":0},{"OBJECT_NAME":"STARLINK-32832","OBJECT_ID":"2025-034M","EPOCH":"2025-11-13T01:56:14.661600","MEAN_MOTION":15.30183162,"ECCENTRICITY":0.00041323,"INCLINATION":53.1546,"RA_OF_ASC_NODE":79.7492,"ARG_OF_PERICENTER":87.6404,"MEAN_ANOMALY":272.507,"EPHEMERIS_TYPE":0,"CLASSIFICATION_TYPE":"U","NORAD_CAT_ID":63040,"ELEMENT_SET_NO":999,"REV_AT_EPOCH":4123,"BSTAR":0.0023276529,"MEAN_MOTION_DOT":0.00069199,"MEAN_MOTION_DDOT":0},{"OBJECT_NAME":"STARLINK-32820","OBJECT_ID":"2025-034N","EPOCH":"2025-11-12T15:06:58.221792","MEAN_MOTION":15.30237737,"ECCENTRICITY":0.00012391,"INCLINATION":53.1591,"RA_OF_ASC_NODE":81.9114,"ARG_OF_PERICENTER":86.1923,"MEAN_ANOMALY":273.9219,"EPHEMERIS_TYPE":0,"CLASSIFICATION_TYPE":"U","NORAD_CAT_ID":63041,"ELEMENT_SET_NO":999,"REV_AT_EPOCH":4116,"BSTAR":0.0015263506,"MEAN_MOTION_DOT":0.00045175,"MEAN_MOTION_DDOT":0},{"OBJECT_NAME":"STARLINK-32795","OBJECT_ID":"2025-034P","EPOCH":"2025-11-13T01:30:23.779008","MEAN_MOTION":15.30200824,"ECCENTRICITY":0.00025258,"INCLINATION":53.1565,"RA_OF_ASC_NODE":79.6389,"ARG_OF_PERICENTER":84.3489,"MEAN_ANOMALY":275.7799,"EPHEMERIS_TYPE":0,"CLASSIFICATION_TYPE":"U","NORAD_CAT_ID":63042,"ELEMENT_SET_NO":999,"REV_AT_EPOCH":4123,"BSTAR":0.0019603287,"MEAN_MOTION_DOT":0.0005816,"MEAN_MOTION_DDOT":0},{"OBJECT_NAME":"STARLINK-32827","OBJECT_ID":"2025-034Q","EPOCH":"2025-11-12T19:06:01.001952","MEAN_MOTION":15.30252349,"ECCENTRICITY":0.00011397,"INCLINATION":53.159,"RA_OF_ASC_NODE":94.3084,"ARG_OF_PERICENTER":76.1361,"MEAN_ANOMALY":283.9766,"EPHEMERIS_TYPE":0,"CLASSIFICATION_TYPE":"U","NORAD_CAT_ID":63043,"ELEMENT_SET_NO":999,"REV_AT_EPOCH":4100,"BSTAR":0.0016435661,"MEAN_MOTION_DOT":0.00048717,"MEAN_MOTION_DDOT":0},{"OBJECT_NAME":"STARLINK-32735","OBJECT_ID":"2025-034R","EPOCH":"2025-11-12T19:11:57.223968","MEAN_MOTION":15.3027391,"ECCENTRICITY":9.092e-5,"INCLINATION":53.1592,"RA_OF_ASC_NODE":93.6268,"ARG_OF_PERICENTER":348.6846,"MEAN_ANOMALY":11.4134,"EPHEMERIS_TYPE":0,"CLASSIFICATION_TYPE":"U","NORAD_CAT_ID":63044,"ELEMENT_SET_NO":999,"REV_AT_EPOCH":4101,"BSTAR":0.0019279446,"MEAN_MOTION_DOT":0.00057314,"MEAN_MOTION_DDOT":0},{"OBJECT_NAME":"STARLINK-32828","OBJECT_ID":"2025-034S","EPOCH":"2025-11-12T10:24:05.774688","MEAN_MOTION":15.30231984,"ECCENTRICITY":0.00010634,"INCLINATION":53.158,"RA_OF_ASC_NODE":95.5979,"ARG_OF_PERICENTER":72.226,"MEAN_ANOMALY":287.8856,"EPHEMERIS_TYPE":0,"CLASSIFICATION_TYPE":"U","NORAD_CAT_ID":63045,"ELEMENT_SET_NO":999,"REV_AT_EPOCH":4095,"BSTAR":0.0030404161,"MEAN_MOTION_DOT":0.00090886,"MEAN_MOTION_DDOT":0},{"OBJECT_NAME":"STARLINK-32738","OBJECT_ID":"2025-034T","EPOCH":"2025-11-13T01:22:48.020736","MEAN_MOTION":15.30211134,"ECCENTRICITY":0.00035827,"INCLINATION":53.1557,"RA_OF_ASC_NODE":79.6075,"ARG_OF_PERICENTER":77.5738,"MEAN_ANOMALY":282.5663,"EPHEMERIS_TYPE":0,"CLASSIFICATION_TYPE":"U","NORAD_CAT_ID":63046,"ELEMENT_SET_NO":999,"REV_AT_EPOCH":4123,"BSTAR":0.00034965904,"MEAN_MOTION_DOT":0.00010014,"MEAN_MOTION_DDOT":0},{"OBJECT_NAME":"STARLINK-32590","OBJECT_ID":"2025-034U","EPOCH":"2025-11-12T15:10:00.566400","MEAN_MOTION":15.30241485,"ECCENTRICITY":0.00012784,"INCLINATION":53.1592,"RA_OF_ASC_NODE":81.9292,"ARG_OF_PERICENTER":88.1148,"MEAN_ANOMALY":271.9999,"EPHEMERIS_TYPE":0,"CLASSIFICATION_TYPE":"U","NORAD_CAT_ID":63047,"ELEMENT_SET_NO":999,"REV_AT_EPOCH":4115,"BSTAR":0.0017084706,"MEAN_MOTION_DOT":0.00050652,"MEAN_MOTION_DDOT":0}]
